     2.11           G: GLONASS NAV DATA                     RINEX VERSION / TYPE
teqc  2019Feb25                         20230316 08:08:38UTCPGM / RUN BY / DATE
Linux2.6.32-573.12.1.el6.x86_64|x86_64|gcc|Win64-MinGW64|=+ COMMENT
                                                            END OF HEADER
 1 23  3 15 10 15  0.0 2.479832619429D-05 0.000000000000D+00 3.600000000000D+04
    3.180595703125D+03 2.305859565735D+00-0.000000000000D+00 0.000000000000D+00
   -1.435792968750D+04-1.680585861206D+00 9.313225746155D-10 1.000000000000D+00
    2.085315136719D+04-1.508037567139D+00-2.793967723846D-09 0.000000000000D+00
 7 23  3 15  9 45  0.0 5.179643630981D-05 0.000000000000D+00 3.420000000000D+04
    2.326429833984D+04-3.103466033936D-01 9.313225746155D-10 0.000000000000D+00
   -1.021893115234D+04-3.619289398193D-02-1.862645149231D-09 5.000000000000D+00
   -1.877927734375D+03-3.566179275513D+00-2.793967723846D-09 0.000000000000D+00
 8 23  3 15 10 15  0.0-6.987247616053D-05-0.000000000000D+00 3.600000000000D+04
    1.774700927734D+04 8.591642379761D-01 0.000000000000D+00 0.000000000000D+00
   -1.632803613281D+04-7.539129257202D-01-9.313225746155D-10 6.000000000000D+00
    8.331796875000D+03-3.335553169250D+00-2.793967723846D-09 0.000000000000D+00
 9 23  3 15 10 15  0.0 1.092785969377D-04 1.818989403546D-12 3.600000000000D+04
    1.014426611328D+04 2.674016952515D-01-9.313225746155D-10 0.000000000000D+00
    1.512620898438D+04 2.426583290100D+00 1.862645149231D-09-2.000000000000D+00
    1.783626464844D+04-2.218535423279D+00-0.000000000000D+00 0.000000000000D+00
10 23  3 15 10 15  0.0-9.141210466623D-05-0.000000000000D+00 3.600000000000D+04
    1.097922167969D+04 2.353353500366D-01-9.313225746155D-10 0.000000000000D+00
   -1.161914062500D+03 3.140900611877D+00 1.862645149231D-09-7.000000000000D+00
    2.298043066406D+04 5.349445343018D-02-1.862645149231D-09 0.000000000000D+00
11 23  3 15 10 15  0.0-1.869816333055D-05-6.366462912410D-12 3.600000000000D+04
    6.056900878906D+03 3.478717803955D-02-0.000000000000D+00 0.000000000000D+00
   -1.918995556641D+04 2.149949073792D+00 0.000000000000D+00 0.000000000000D+00
    1.569033105469D+04 2.615671157837D+00-2.793967723846D-09 0.000000000000D+00
16 23  3 15  9 15  0.0 1.239124685526D-05 0.000000000000D+00 3.243000000000D+04
    2.551825683594D+03-2.216339111328D-01-1.862645149231D-09 0.000000000000D+00
    2.127061279297D+04 1.886196136475D+00 9.313225746155D-10-1.000000000000D+00
    1.382577099609D+04-2.864114761353D+00 0.000000000000D+00 0.000000000000D+00
17 23  3 15  9 15  0.0 6.127320230007D-04 2.728484105319D-12 3.240000000000D+04
   -1.358641064453D+04-2.249492645264D+00-1.862645149231D-09 0.000000000000D+00
    9.444316406250D+02-1.918653488159D+00 1.862645149231D-09 4.000000000000D+00
    2.156852880859D+04-1.336151123047D+00-0.000000000000D+00 0.000000000000D+00
18 23  3 15 10 15  0.0 7.154792547226D-05 1.818989403546D-12 3.600000000000D+04
   -9.330231933594D+03-2.791718482971D+00-1.862645149231D-09 0.000000000000D+00
    6.679289550781D+03-1.398460388184D+00 2.793967723846D-09-3.000000000000D+00
    2.280281982422D+04-7.277431488037D-01-0.000000000000D+00 0.000000000000D+00
24 23  3 15  7 45  0.0 1.538898795843D-04 3.637978807092D-12 2.706000000000D+04
   -1.276836376953D+04-1.317811965942D+00-2.793967723846D-09 0.000000000000D+00
   -3.138557617188D+03-2.686527252197D+00 9.313225746155D-10 2.000000000000D+00
    2.187313183594D+04-1.156085968018D+00-0.000000000000D+00 0.000000000000D+00
 2 23  3 15 10 15  0.0-2.313591539860D-05 0.000000000000D+00 3.747000000000D+04
   -1.375718017578D+04 2.483080863953D+00-9.313225746155D-10 0.000000000000D+00
   -3.034709960938D+03-1.512967109680D+00 1.862645149231D-09-4.000000000000D+00
    2.133000439453D+04 1.383522987366D+00-9.313225746155D-10 0.000000000000D+00
 8 23  3 15 10 45  0.0-6.987340748310D-05-0.000000000000D+00 3.780000000000D+04
    1.859612158203D+04 9.878349304199D-02 9.313225746155D-10 0.000000000000D+00
   -1.731993701172D+04-3.090038299561D-01-1.862645149231D-09 6.000000000000D+00
    2.083276367188D+03-3.562222480774D+00-2.793967723846D-09 0.000000000000D+00
11 23  3 15 10 45  0.0-1.870933920145D-05-6.366462912410D-12 3.780000000000D+04
    6.487219726563D+03 4.633731842041D-01-0.000000000000D+00 0.000000000000D+00
   -1.482085302734D+04 2.661271095276D+00 9.313225746155D-10 0.000000000000D+00
    1.973185156250D+04 1.845783233643D+00-2.793967723846D-09 0.000000000000D+00
10 23  3 15 10 45  0.0-9.141303598881D-05-0.000000000000D+00 3.780000000000D+04
    1.179785839844D+04 6.621122360229D-01-9.313225746155D-10 0.000000000000D+00
    4.379618652344D+03 2.966467857361D+00 1.862645149231D-09-7.000000000000D+00
    2.218630908203D+04-9.298934936523D-01-9.313225746155D-10 0.000000000000D+00
 1 23  3 15 10 45  0.0 2.479925751686D-05 0.000000000000D+00 3.780000000000D+04
    6.794015625000D+03 1.689074516296D+00-0.000000000000D+00 0.000000000000D+00
   -1.741660595703D+04-1.673704147339D+00 0.000000000000D+00 1.000000000000D+00
    1.736851269531D+04-2.338672637939D+00-2.793967723846D-09 0.000000000000D+00
 9 23  3 15 10 45  0.0 1.092813909054D-04 1.818989403546D-12 3.780000000000D+04
    1.083486865234D+04 4.661512374878D-01-9.313225746155D-10 0.000000000000D+00
    1.891038427734D+04 1.747833251953D+00 1.862645149231D-09-2.000000000000D+00
    1.320352636719D+04-2.895588874817D+00 0.000000000000D+00 0.000000000000D+00
18 23  3 15 10 45  0.0 7.155444473028D-05 1.818989403546D-12 3.783000000000D+04
   -1.431203369141D+04-2.692100524902D+00-9.313225746155D-10 0.000000000000D+00
    4.641234375000D+03-8.589715957642D-01 2.793967723846D-09-3.000000000000D+00
    2.063060937500D+04-1.670075416565D+00-0.000000000000D+00 0.000000000000D+00
 2 23  3 15 10 45  0.0-2.313405275345D-05 0.000000000000D+00 3.786000000000D+04
   -9.318058105469D+03 2.402837753296D+00-9.313225746155D-10 0.000000000000D+00
   -6.223062011719D+03-2.008324623108D+00 1.862645149231D-09-4.000000000000D+00
    2.296897607422D+04 4.257001876831D-01-9.313225746155D-10 0.000000000000D+00
21 23  3 15 11 15  0.0-3.804760053754D-04-2.728484105319D-12 3.960000000000D+04
    2.498400000000D+04 5.125503540039D-01-0.000000000000D+00 0.000000000000D+00
    3.878102539063D+03-1.293811798096D-01-9.313225746155D-10 4.000000000000D+00
   -3.451492187500D+03 3.563465118408D+00-0.000000000000D+00 0.000000000000D+00
11 23  3 15 11 15  0.0-1.871958374977D-05-6.366462912410D-12 3.960000000000D+04
    7.767060546875D+03 9.614868164063D-01-0.000000000000D+00 0.000000000000D+00
   -9.780325683594D+03 2.889164924622D+00 9.313225746155D-10 0.000000000000D+00
    2.224937695313D+04 9.333105087280D-01-2.793967723846D-09 0.000000000000D+00
10 23  3 15 11 15  0.0-9.141396731138D-05-0.000000000000D+00 3.960000000000D+04
    1.328922949219D+04 9.669361114502D-01-9.313225746155D-10 0.000000000000D+00
    9.350846191406D+03 2.515888214111D+00 1.862645149231D-09-7.000000000000D+00
    1.967684179688D+04-1.840107917786D+00-0.000000000000D+00 0.000000000000D+00
 2 23  3 15 11 15  0.0-2.313312143087D-05 0.000000000000D+00 3.960000000000D+04
   -5.258857421875D+03 2.070747375488D+00-0.000000000000D+00 0.000000000000D+00
   -1.015884277344D+04-2.328149795532D+00 1.862645149231D-09-4.000000000000D+00
    2.284230615234D+04-5.657253265381D-01-1.862645149231D-09 0.000000000000D+00
 1 23  3 15 11 15  0.0 2.480112016201D-05 0.000000000000D+00 3.960000000000D+04
    9.222478515625D+03 1.007852554321D+00 0.000000000000D+00 0.000000000000D+00
   -2.021871923828D+04-1.394114494324D+00-0.000000000000D+00 1.000000000000D+00
    1.254255078125D+04-2.988739013672D+00-3.725290298462D-09 0.000000000000D+00
 9 23  3 15 11 15  0.0 1.092851161957D-04 1.818989403546D-12 3.981000000000D+04
    1.168639794922D+04 4.395999908447D-01-9.313225746155D-10 0.000000000000D+00
    2.134000585938D+04 9.390382766724D-01 1.862645149231D-09-2.000000000000D+00
    7.546843750000D+03-3.348730087280D+00 9.313225746155D-10 0.000000000000D+00
19 23  3 15 11 15  0.0-2.253642305732D-04-9.094947017729D-13 4.017000000000D+04
   -4.591187500000D+03-3.096219062805D+00-9.313225746155D-10 0.000000000000D+00
    9.475651367188D+03-7.563428878784D-01 2.793967723846D-09 3.000000000000D+00
    2.323307080078D+04-3.029270172119D-01-0.000000000000D+00 0.000000000000D+00
21 23  3 15 11 45  0.0-3.804806619883D-04-2.728484105319D-12 4.140000000000D+04
    2.509889648438D+04-3.917303085327D-01-0.000000000000D+00 0.000000000000D+00
    3.480457519531D+03-2.705240249634D-01 0.000000000000D+00 4.000000000000D+00
    3.013258300781D+03 3.572990417480D+00-0.000000000000D+00 0.000000000000D+00
11 23  3 15 11 45  0.0-1.873075962067D-05-6.366462912410D-12 4.140000000000D+04
    9.925772949219D+03 1.421725273132D+00-0.000000000000D+00 0.000000000000D+00
   -4.601627441406D+03 2.815677642822D+00 1.862645149231D-09 0.000000000000D+00
    2.304832617188D+04-5.138015747070D-02-1.862645149231D-09 0.000000000000D+00
 2 23  3 15 11 45  0.0-2.313219010830D-05 0.000000000000D+00 4.140000000000D+04
   -1.969304199219D+03 1.562968254089D+00-0.000000000000D+00 0.000000000000D+00
   -1.445255908203D+04-2.396209716797D+00 9.313225746155D-10-4.000000000000D+00
    2.095776513672D+04-1.514911651611D+00-2.793967723846D-09 0.000000000000D+00
19 23  3 15 11 45  0.0-2.253660932183D-04-9.094947017729D-13 4.149000000000D+04
   -1.010830859375D+04-2.980808258057D+00-0.000000000000D+00 0.000000000000D+00
    8.567489746094D+03-2.526845932007D-01 2.793967723846D-09 3.000000000000D+00
    2.179686132813D+04-1.282494544983D+00-0.000000000000D+00 0.000000000000D+00
10 23  3 15 11 45  0.0-9.141396731138D-05-0.000000000000D+00 4.161000000000D+04
    1.515580224609D+04 1.067906379700D+00-0.000000000000D+00 0.000000000000D+00
    1.331303515625D+04 1.859997749329D+00 1.862645149231D-09-7.000000000000D+00
    1.564803710938D+04-2.607176780701D+00 0.000000000000D+00 0.000000000000D+00
